NORAD_CAT_ID,OBJECT_NAME,OBJECT_TYPE,EPOCH,MEAN_MOTION,ECCENTRICITY,INCLINATION,RA_OF_ASC_NODE,ARG_OF_PERICENTER,MEAN_ANOMALY,BSTAR,MEAN_MOTION_DOT,MEAN_MOTION_DDOT,TLE_LINE0,TLE_LINE1,TLE_LINE2,SEMIMAJOR_AXIS,PERIOD,APOGEE,PERIGEE,DECAYED
51768.0,STARLINK-3622,PAYLOAD,2022-06-12 22:00:00,15.08825393,0.0001897,53.2135,350.3123,55.4123,127.5196,0.0024987,0.00039688,0.0,0 STARLINK-3622,1 51768U 22017A   22163.91667824  .00039688  00000-0  24987-2 0  9992,2 51768  53.2135 350.3123 0001897  55.4123 127.5196 15.08825393  1309,6917.925,95.438,541.102,538.4780000000002,0.0
51768.0,STARLINK-3622,PAYLOAD,2022-06-13 14:00:01,15.08871423,0.0001675,53.2134,347.3176,62.4966,143.6524,-0.0023728,-0.00037886,0.0,0 STARLINK-3622,1 51768U 22017A   22164.58334491 -.00037886  00000-0 -23728-2 0  9999,2 51768  53.2134 347.3176 0001675  62.4966 143.6524 15.08871423  1308,6917.784000000002,95.436,540.808,538.491,0.0
51768.0,STARLINK-3622,PAYLOAD,2022-06-13 22:00:00,15.08832315,0.000175,53.2131,345.8225,53.7457,164.0247,0.001903,0.00030122,0.0,0 STARLINK-3622,1 51768U 22017A   22164.91667824  .00030122  00000-0  19030-2 0  9990,2 51768  53.2131 345.8225 0001750  53.7457 164.0247 15.08832315 18028,6917.904,95.438,540.98,538.558,0.0
51768.0,STARLINK-3622,PAYLOAD,2022-06-14 14:00:01,15.08860214,0.0001504,53.2129,342.8279,59.6144,181.3413,-0.0033657,-0.00053485,0.0,0 STARLINK-3622,1 51768U 22017A   22165.58334491 -.00053485  00000-0 -33657-2 0  9995,2 51768  53.2129 342.8279 0001504  59.6144 181.3413 15.08860214 18123,6917.819,95.436,540.724,538.643,0.0
51768.0,STARLINK-3622,PAYLOAD,2022-06-14 22:00:00,15.08793239,0.0001597,53.2127,341.3328,49.8901,202.6666,0.0032805,0.00052241,0.0,0 STARLINK-3622,1 51768U 22017A   22165.91667824  .00052241  00000-0  32805-2 0  9992,2 51768  53.2127 341.3328 0001597  49.8901 202.6666 15.08793239  1305,6918.023,95.441,540.993,538.784,0.0
51768.0,STARLINK-3622,PAYLOAD,2022-06-15 06:00:00,15.0881818,0.0001453999999999,53.2127,339.8344,54.6971,209.4258,0.00084648,0.00013201,0.0,0 STARLINK-3622,1 51768U 22017A   22166.25001157  .00013201  00000-0  84648-3 0  9997,2 51768  53.2127 339.8344 0001454  54.6971 209.4258 15.08818180 18222,6917.946999999999,95.439,540.818,538.806,0.0
51768.0,STARLINK-3622,PAYLOAD,2022-06-15 14:00:01,15.08847028,0.0001506,53.2128,338.3382,57.4758,218.2184,-0.00066664,-0.00010884,0.0,0 STARLINK-3622,1 51768U 22017A   22166.58334491 -.00010884  00000-0 -66664-3 0  9997,2 51768  53.2128 338.3382 0001506  57.4758 218.2184 15.08847028  1301,6917.859,95.437,540.766,538.682,0.0
51768.0,STARLINK-3622,PAYLOAD,2022-06-15 22:00:00,15.08834157,0.0001665999999999,53.2127,336.8431,49.9238,237.3776,0.0017447,0.00027584,0.0,0 STARLINK-3622,1 51768U 22017A   22166.91667824  .00027584  00000-0  17447-2 0  9990,2 51768  53.2127 336.8431 0001666  49.9238 237.3776 15.08834157  1302,6917.898,95.438,540.9159999999998,538.611,0.0
51768.0,STARLINK-3622,PAYLOAD,2022-06-16 02:00:01,15.08871527,0.0001647,53.2126,336.0938,51.2347,61.8614,-0.0033048,-0.00052546,0.0,0 STARLINK-3622,1 51768U 22017A   22167.08334491 -.00052546  00000-0 -33048-2 0  9993,2 51768  53.2126 336.0938 0001647  51.2347  61.8614 15.08871527  1304,6917.784000000002,95.436,540.788,538.51,0.0
51768.0,STARLINK-3622,PAYLOAD,2022-06-19 14:00:01,15.0886948,0.0001607,53.214,320.381,52.1984,2.5985,-0.0038859,-0.00061653,0.0,0 STARLINK-3622,1 51768U 22017A   22170.58334491 -.00061653  00000-0 -38859-2 0  9996,2 51768  53.2140 320.3810 0001607  52.1984   2.5985 15.08869480  1306,6917.79,95.436,540.7669999999998,538.544,0.0
51768.0,STARLINK-3622,PAYLOAD,2022-06-19 20:00:01,15.08813552,0.000169,53.2137,319.2595,46.9123,286.5997,0.0032768,0.00052211,0.0,0 STARLINK-3622,1 51768U 22017A   22170.83334491  .00052211  00000-0  32768-2 0  9995,2 51768  53.2137 319.2595 0001690  46.9123 286.5997 15.08813552 18918,6917.9609999999975,95.439,540.995,538.6569999999998,0.0
51768.0,STARLINK-3622,PAYLOAD,2022-06-19 22:00:00,15.08828528,0.0001672,53.2134,318.8853,45.1148,21.2891,0.0019723,0.00031231,0.0,0 STARLINK-3622,1 51768U 22017A   22170.91667824  .00031231  00000-0  19723-2 0  9998,2 51768  53.2134 318.8853 0001672  45.1148  21.2891 15.08828528  1306,6917.915,95.438,540.937,538.624,0.0
51768.0,STARLINK-3622,PAYLOAD,2022-06-20 06:00:00,15.08816524,0.000151,53.2135,317.387,53.9664,24.04,0.0013932,0.0002194,0.0,0 STARLINK-3622,1 51768U 22017A   22171.25001157  .00021940  00000-0  13932-2 0  9999,2 51768  53.2135 317.3870 0001510  53.9664  24.0400 15.08816524 18972,6917.9519999999975,95.439,540.862,538.773,0.0
51768.0,STARLINK-3622,PAYLOAD,2022-06-20 14:00:01,15.08841643,0.0001656,53.2135,315.8918,53.9208,35.6549,-0.0013464,-0.00021653,0.0,0 STARLINK-3622,1 51768U 22017A   22171.58334491 -.00021653  00000-0 -13464-2 0  9998,2 51768  53.2135 315.8918 0001656  53.9208  35.6549 15.08841643  1304,6917.875,95.437,540.886,538.595,0.0
51768.0,STARLINK-3622,PAYLOAD,2022-06-20 22:00:00,15.08839334,0.0001763,53.2129,314.3959,49.1028,52.0594,-0.00057915,-9.493e-05,0.0,0 STARLINK-3622,1 51768U 22017A   22171.91667824 -.00009493  00000-0 -57915-3 0  9992,2 51768  53.2129 314.3959 0001763  49.1028  52.0594 15.08839334  1309,6917.882,95.438,540.967,538.528,0.0
51768.0,STARLINK-3622,PAYLOAD,2022-06-21 06:00:00,15.08803949,0.0001629,53.2129,312.8977,57.938,54.83,0.0029819,0.00047442,0.0,0 STARLINK-3622,1 51768U 22017A   22172.25001157  .00047442  00000-0  29819-2 0  9996,2 51768  53.2129 312.8977 0001629  57.9380  54.8300 15.08803949 19128,6917.991,95.44,540.9830000000002,538.729,0.0
51768.0,STARLINK-3622,PAYLOAD,2022-06-21 14:00:01,15.08840947,0.0001737,53.213,311.4024,56.324,68.0389,-0.0013014,-0.00020941,0.0,0 STARLINK-3622,1 51768U 22017A   22172.58334491 -.00020941  00000-0 -13014-2 0  9999,2 51768  53.2130 311.4024 0001737  56.3240  68.0389 15.08840947  1300,6917.877,95.437,540.944,538.5409999999998,0.0
51768.0,STARLINK-3622,PAYLOAD,2022-06-21 22:00:00,15.08834122,0.0001812,53.2133,309.9063,51.9759,83.9756,0.0012311,0.00019356,0.0,0 STARLINK-3622,1 51768U 22017A   22172.91667824  .00019356  00000-0  12311-2 0  9990,2 51768  53.2133 309.9063 0001812  51.9759  83.9756 15.08834122  1300,6917.898,95.438,541.0169999999998,538.51,0.0
51768.0,STARLINK-3622,PAYLOAD,2022-06-22 00:00:02,15.08854661,0.0001771,53.2134,309.5315,54.0807,174.8269,-0.0013397,-0.00021555,0.0,0 STARLINK-3622,1 51768U 22017A   22173.00002315 -.00021555  00000-0 -13397-2 0  9990,2 51768  53.2134 309.5315 0001771  54.0807 174.8269 15.08854661 19240,6917.8359999999975,95.437,540.9259999999998,538.475,0.0
51768.0,STARLINK-3622,PAYLOAD,2022-06-22 14:00:01,15.08834042,0.000188,53.2143,306.913,58.6839,100.4605,-0.001087,-0.00017544,0.0,0 STARLINK-3622,1 51768U 22017A   22173.58334491 -.00017544  00000-0 -10870-2 0  9992,2 51768  53.2143 306.9130 0001880  58.6839 100.4605 15.08834042  1300,6917.899,95.438,541.064,538.4630000000002,0.0
51768.0,STARLINK-3622,PAYLOAD,2022-06-22 22:00:00,15.08831663,0.0001913,53.2138,305.4167,54.9125,115.8072,0.00052588,8.089e-05,0.0,0 STARLINK-3622,1 51768U 22017A   22173.91667824  .00008089  00000-0  52588-3 0  9993,2 51768  53.2138 305.4167 0001913  54.9125 115.8072 15.08831663  1306,6917.906,95.438,541.094,538.447,0.0
51768.0,STARLINK-3622,PAYLOAD,2022-06-23 06:00:00,15.0882282,0.0001776,53.2138,303.9185,60.9034,121.4157,0.0025794,0.00040983,0.0,0 STARLINK-3622,1 51768U 22017A   22174.25001157  .00040983  00000-0  25794-2 0  9999,2 51768  53.2138 303.9185 0001776  60.9034 121.4157 15.08822820 19437,6917.933000000001,95.439,541.0269999999998,538.569,0.0
51768.0,STARLINK-3622,PAYLOAD,2022-06-23 14:00:01,15.08849984,0.0001852,53.214,302.4234,56.7775,137.1349,-0.0030997,-0.00049297,0.0,0 STARLINK-3622,1 51768U 22017A   22174.58334491 -.00049297  00000-0 -30997-2 0  9995,2 51768  53.2140 302.4234 0001852  56.7775 137.1349 15.08849984  1303,6917.85,95.437,540.996,538.434,0.0
51768.0,STARLINK-3622,PAYLOAD,2022-06-23 22:00:00,15.08835066,0.0001843,53.2138,300.9269,52.4394,153.0601,4.1139e-05,3.67e-06,0.0,0 STARLINK-3622,1 51768U 22017A   22174.91667824  .00000367  00000-0  41139-4 0  9996,2 51768  53.2138 300.9269 0001843  52.4394 153.0601 15.08835066 19539,6917.895,95.438,541.035,538.486,0.0
51768.0,STARLINK-3622,PAYLOAD,2022-06-24 14:00:01,15.08846613,0.0001874,53.2143,297.9339,55.2898,173.3855,-0.00067042,-0.00010944,0.0,0 STARLINK-3622,1 51768U 22017A   22175.58334491 -.00010944  00000-0 -67042-3 0  9995,2 51768  53.2143 297.9339 0001874  55.2898 173.3855 15.08846613  1304,6917.86,95.437,541.0219999999998,538.429,0.0
51768.0,STARLINK-3622,PAYLOAD,2022-06-24 22:00:01,15.08868819,0.0001841,53.2143,296.4372,52.2417,188.0874,-0.0030592,-0.00048686,0.0,0 STARLINK-3622,1 51768U 22017A   22175.91668981 -.00048686  00000-0 -30592-2 0  9999,2 51768  53.2143 296.4372 0001841  52.2417 188.0874 15.08868819 19689,6917.792,95.436,540.931,538.384,0.0
51768.0,STARLINK-3622,PAYLOAD,2022-06-25 14:00:01,15.08837568,0.0001834,53.2148,293.4444,52.7143,210.7481,-0.00055045,-9.037e-05,0.0,0 STARLINK-3622,1 51768U 22017A   22176.58334491 -.00009037  00000-0 -55045-3 0  9997,2 51768  53.2148 293.4444 0001834  52.7143 210.7481 15.08837568  1308,6917.888000000001,95.438,541.0219999999998,538.484,0.0
51768.0,STARLINK-3622,PAYLOAD,2022-06-25 16:00:00,15.08827438,0.0001881,53.215,293.0706,51.7474,304.6147,0.00097945,0.00015329,0.0,0 STARLINK-3622,1 51768U 22017A   22176.66667824  .00015329  00000-0  97945-3 0  9999,2 51768  53.2150 293.0706 0001881  51.7474 304.6147 15.08827438 19795,6917.919,95.438,541.085,538.4830000000002,0.0
51768.0,STARLINK-3622,PAYLOAD,2022-06-25 22:00:00,15.0885797,0.0001815,53.2148,291.9477,50.6906,224.3604,-0.0011478,-0.00018518,0.0,0 STARLINK-3622,1 51768U 22017A   22176.91667824 -.00018518  00000-0 -11478-2 0  9998,2 51768  53.2148 291.9477 0001815  50.6906 224.3604 15.08857970  1307,6917.825,95.436,540.946,538.435,0.0
